NORAD_CAT_ID,OBJECT_NAME,OBJECT_TYPE,EPOCH,MEAN_MOTION,ECCENTRICITY,INCLINATION,RA_OF_ASC_NODE,ARG_OF_PERICENTER,MEAN_ANOMALY,BSTAR,MEAN_MOTION_DOT,MEAN_MOTION_DDOT,TLE_LINE0,TLE_LINE1,TLE_LINE2,SEMIMAJOR_AXIS,PERIOD,APOGEE,PERIGEE,DECAYED
53999.0,STARLINK-5079,PAYLOAD,2022-10-11 18:00:00,15.81449717,0.0001248,53.2174,63.0334,46.5695,8.6711,-0.0066558,-0.01200146,0.0,0 STARLINK-5079,1 53999U 22125AM  22284.75001157 -.01200146  00000-0 -66558-2 0  9999,2 53999  53.2174  63.0334 0001248  46.5695   8.6711 15.81449717  1302,6704.477,91.056,327.1790000000001,325.505,0.0
53999.0,STARLINK-5079,PAYLOAD,2022-10-12 12:00:00,15.79497668,0.0001152,53.2178,59.2803,47.6472,317.3152,-0.007291,-0.01200638,0.0,0 STARLINK-5079,1 53999U 22125AM  22285.50001157 -.01200638  00000-0 -72910-2 0  9998,2 53999  53.2178  59.2803 0001152  47.6472 317.3152 15.79497668  1419,6710.0,91.168,332.6380000000001,331.092,0.0
53999.0,STARLINK-5079,PAYLOAD,2022-10-12 14:00:01,15.79276449,0.0001378,53.2175,58.8649,47.1236,71.9275,-0.007318,-0.01193879,0.0,0 STARLINK-5079,1 53999U 22125AM  22285.58334491 -.01193879  00000-0 -73180-2 0  9994,2 53999  53.2175  58.8649 0001378  47.1236  71.9275 15.79276449  1301,6710.627,91.181,333.416,331.56699999999995,0.0
53999.0,STARLINK-5079,PAYLOAD,2022-10-12 22:00:00,15.78411153,0.0001336,53.217,57.2019,50.7128,164.0353,-0.0076396999999999,-0.01197564,0.0,0 STARLINK-5079,1 53999U 22125AM  22285.91667824 -.01197564  00000-0 -76397-2 0  9998,2 53999  53.2170  57.2019 0001336  50.7128 164.0353 15.78411153  1307,6713.079000000002,91.231,335.841,334.047,0.0
53999.0,STARLINK-5079,PAYLOAD,2022-10-13 04:00:00,15.77757074,0.000128,53.2174,55.9541,54.2046,141.6347,-0.0078296,-0.01192116,0.0,0 STARLINK-5079,1 53999U 22125AM  22286.16667824 -.01192116  00000-0 -78296-2 0  9994,2 53999  53.2174  55.9541 0001280  54.2046 141.6347 15.77757074  1524,6714.934,91.269,337.659,335.94,0.0
53999.0,STARLINK-5079,PAYLOAD,2022-10-13 14:00:01,15.76674777,0.0001815,53.2174,53.8813,24.873,18.1425,-0.0082484,-0.01196043,0.0,0 STARLINK-5079,1 53999U 22125AM  22286.58334491 -.01196043  00000-0 -82484-2 0  9998,2 53999  53.2174  53.8813 0001815  24.8730  18.1425 15.76674777  1308,6718.007,91.331,341.091,338.652,0.0
53999.0,STARLINK-5079,PAYLOAD,2022-10-13 16:00:00,15.76456454,0.0001928,53.2173,53.4672,29.7786,126.4772,-0.0083103,-0.01193687,0.0,0 STARLINK-5079,1 53999U 22125AM  22286.66667824 -.01193687  00000-0 -83103-2 0  9996,2 53999  53.2173  53.4672 0001928  29.7786 126.4772 15.76456454  1607,6718.627,91.344,341.787,339.19699999999995,0.0
53999.0,STARLINK-5079,PAYLOAD,2022-10-13 22:00:00,15.75806304,0.0001913,53.2173,52.2245,26.7615,108.8233,-0.0085648,-0.01194984,0.0,0 STARLINK-5079,1 53999U 22125AM  22286.91667824 -.01194984  00000-0 -85648-2 0  9991,2 53999  53.2173  52.2245 0001913  26.7615 108.8233 15.75806304  1307,6720.475,91.382,343.625,341.0540000000001,0.0
53999.0,STARLINK-5079,PAYLOAD,2022-10-14 14:00:01,15.73933265,0.000184,53.2175,48.9169,32.4748,285.1407,-0.00591,-0.00781529,0.0,0 STARLINK-5079,1 53999U 22125AM  22287.58334491 -.00781529  00000-0 -59100-2 0  9996,2 53999  53.2175  48.9169 0001840  32.4748 285.1407 15.73933265  1741,6725.805,91.491,348.908,346.43300000000005,0.0
53999.0,STARLINK-5079,PAYLOAD,2022-10-14 18:00:00,15.73522813,0.0002024,53.2176,48.092,29.2122,153.2445,-0.0032001999999999,-0.00433425,0.0,0 STARLINK-5079,1 53999U 22125AM  22287.75001157 -.00433425  00000-0 -32002-2 0  9996,2 53999  53.2176  48.0920 0002024  29.2122 153.2445 15.73522813  1776,6726.975,91.514,350.202,347.478,0.0
53999.0,STARLINK-5079,PAYLOAD,2022-10-15 04:00:00,15.73202005,0.0001605,53.2173,46.0274,36.7349,347.0804,2.7998e-05,3.311e-05,0.0,0 STARLINK-5079,1 53999U 22125AM  22288.16667824  .00003311  00000-0  27998-4 0  9996,2 53999  53.2173  46.0274 0001605  36.7349 347.0804 15.73202005  1838,6727.889,91.533,350.834,348.675,0.0
53999.0,STARLINK-5079,PAYLOAD,2022-10-15 14:00:01,15.7324301,0.0001843,53.2231,43.9743,42.4727,182.5793,-4.7252e-05,-7.259e-05,0.0,0 STARLINK-5079,1 53999U 22125AM  22288.58334491 -.00007259  00000-0 -47252-4 0  9995,2 53999  53.2231  43.9743 0001843  42.4727 182.5793 15.73243010  1906,6727.773,91.531,350.87699999999984,348.398,0.0
53999.0,STARLINK-5079,PAYLOAD,2022-10-15 20:00:01,15.73203528,0.0001530999999999,53.2172,42.7303,39.2501,162.4971,1.5733e-05,1.588e-05,0.0,0 STARLINK-5079,1 53999U 22125AM  22288.83335648  .00001588  00000-0  15733-4 0  9994,2 53999  53.2172  42.7303 0001531  39.2501 162.4971 15.73203528  1946,6727.885,91.533,350.78,348.72,0.0
53999.0,STARLINK-5079,PAYLOAD,2022-10-15 22:00:01,15.73205174,0.0001529,53.2173,42.3173,39.7206,274.2602,-1.0472e-05,-2.09e-05,0.0,0 STARLINK-5079,1 53999U 22125AM  22288.91668981 -.00002090  00000-0 -10472-4 0  9998,2 53999  53.2173  42.3173 0001529  39.7206 274.2602 15.73205174  1304,6727.88,91.533,350.774,348.717,0.0
53999.0,STARLINK-5079,PAYLOAD,2022-10-16 14:00:01,15.73163698,0.0002222,53.2192,39.0267,43.1262,88.6445,0.00046187,0.00064603,0.0,0 STARLINK-5079,1 53999U 22125AM  22289.58334491  .00064603  00000-0  46187-3 0  9995,2 53999  53.2192  39.0267 0002222  43.1262  88.6445 15.73163698  1300,6727.999,91.535,351.3590000000001,348.369,0.0
53999.0,STARLINK-5079,PAYLOAD,2022-10-16 22:00:00,15.73246166,0.0002121,53.2183,37.3771,41.2656,179.3856,-0.00019226,-0.00027571,0.0,0 STARLINK-5079,1 53999U 22125AM  22289.91667824 -.00027571  00000-0 -19226-3 0  9990,2 53999  53.2183  37.3771 0002121  41.2656 179.3856 15.73246166  1301,6727.764,91.53,351.056,348.202,0.0
53999.0,STARLINK-5079,PAYLOAD,2022-10-17 04:00:00,15.73204306,0.000188,53.2182,36.1374,41.2005,156.1933,0.00023162,0.00032017,0.0,0 STARLINK-5079,1 53999U 22125AM  22290.16667824  .00032017  00000-0  23162-3 0  9992,2 53999  53.2182  36.1374 0001880  41.2005 156.1933 15.73204306  2158,6727.8830000000025,91.533,351.01300000000015,348.483,0.0
53999.0,STARLINK-5079,PAYLOAD,2022-10-17 12:00:00,15.73048402,0.0002118,53.2177,34.4832,43.5981,242.8431,0.001629,0.00232939,0.0,0 STARLINK-5079,1 53999U 22125AM  22290.50001157  .00232939  00000-0  16290-2 0  9999,2 53999  53.2177  34.4832 0002118  43.5981 242.8431 15.73048402  2200,6728.3269999999975,91.542,351.617,348.767,0.0
53999.0,STARLINK-5079,PAYLOAD,2022-10-17 14:00:01,15.73138322,0.0002207,53.2176,34.0709,44.1108,354.5072,0.00075368,0.00106224,0.0,0 STARLINK-5079,1 53999U 22125AM  22290.58334491  .00106224  00000-0  75368-3 0  9996,2 53999  53.2176  34.0709 0002207  44.1108 354.5072 15.73138322  1308,6728.071,91.537,351.421,348.451,0.0
53999.0,STARLINK-5079,PAYLOAD,2022-10-17 20:00:01,15.73156446,0.0001949,53.2187,32.8415,20.9769,354.324,0.00040485,0.00056476,0.0,0 STARLINK-5079,1 53999U 22125AM  22290.83334491  .00056476  00000-0  40485-3 0  9999,2 53999  53.2187  32.8415 0001949  20.9769 354.3240 15.73156446  2254,6728.019,91.536,351.196,348.5730000000001,0.0
53999.0,STARLINK-5079,PAYLOAD,2022-10-17 22:00:00,15.73175396,0.0001904,53.2189,32.4285,20.8287,106.69,0.00024846,0.00034356,0.0,0 STARLINK-5079,1 53999U 22125AM  22290.91667824  .00034356  00000-0  24846-3 0  9993,2 53999  53.2189  32.4285 0001904  20.8287 106.6900 15.73175396  1303,6727.965,91.535,351.111,348.5490000000001,0.0
53999.0,STARLINK-5079,PAYLOAD,2022-10-18 12:00:00,15.73222772,0.0002063,53.2188,29.5422,25.8679,167.2709,-0.00051707,-0.00072642,0.0,0 STARLINK-5079,1 53999U 22125AM  22291.50001157 -.00072642  00000-0 -51707-3 0  9998,2 53999  53.2188  29.5422 0002063  25.8679 167.2709 15.73222772  2367,6727.83,91.532,351.083,348.307,0.0
53999.0,STARLINK-5079,PAYLOAD,2022-10-18 14:00:01,15.73211301,0.0002138,53.2188,29.1303,25.9928,279.383,-0.00043913,-0.00061835,0.0,0 STARLINK-5079,1 53999U 22125AM  22291.58334491 -.00061835  00000-0 -43913-3 0  9998,2 53999  53.2188  29.1303 0002138  25.9928 279.3830 15.73211301  1301,6727.863,91.533,351.166,348.29,0.0
53999.0,STARLINK-5079,PAYLOAD,2022-10-18 20:00:01,15.73205408,0.0002431,53.2171,27.8838,40.9109,241.1789,-1.2005e-05,-2.307e-05,0.0,0 STARLINK-5079,1 53999U 22125AM  22291.83334491 -.00002307  00000-0 -12005-4 0  9994,2 53999  53.2171  27.8838 0002431  40.9109 241.1789 15.73205408  2419,6727.88,91.533,351.38,348.1090000000001,0.0
53999.0,STARLINK-5079,PAYLOAD,2022-10-18 22:00:00,15.73204272,0.0002423,53.2172,27.471,42.3015,352.0228,9.0856e-07,-4.94e-06,0.0,0 STARLINK-5079,1 53999U 22125AM  22291.91667824 -.00000494  00000-0  90856-6 0  9998,2 53999  53.2172  27.4710 0002423  42.3015 352.0228 15.73204272  1303,6727.8830000000025,91.533,351.37800000000016,348.11800000000005,0.0
53999.0,STARLINK-5079,PAYLOAD,2022-10-19 06:00:00,15.73222514,0.0001984,53.2187,25.8295,30.2143,92.9826,-0.00015583,-0.00022455,0.0,0 STARLINK-5079,1 53999U 22125AM  22292.25001157 -.00022455  00000-0 -15583-3 0  9990,2 53999  53.2187  25.8295 0001984  30.2143  92.9826 15.73222514  2481,6727.831,91.532,351.031,348.361,0.0
53999.0,STARLINK-5079,PAYLOAD,2022-10-19 14:00:01,15.73185371,0.0002340999999999,53.2188,24.1822,29.0033,183.1468,0.00048219,0.0006756,0.0,0 STARLINK-5079,1 53999U 22125AM  22292.58334491  .00067560  00000-0  48219-3 0  9992,2 53999  53.2188  24.1822 0002341  29.0033 183.1468 15.73185371  1306,6727.937,91.534,351.37699999999984,348.227,0.0
53999.0,STARLINK-5079,PAYLOAD,2022-10-19 22:00:00,15.73295145,0.0002269,53.218,22.5274,27.3559,273.7223,-0.00096938,-0.00135074,0.0,0 STARLINK-5079,1 53999U 22125AM  22292.91667824 -.00135074  00000-0 -96938-3 0  9997,2 53999  53.2180  22.5274 0002269  27.3559 273.7223 15.73295145  2581,6727.624,91.528,351.015,347.962,0.0
53999.0,STARLINK-5079,PAYLOAD,2022-10-20 06:00:00,15.73221052,0.000208,53.2193,20.8812,23.9032,6.1686,-5.0986e-05,-7.777e-05,0.0,0 STARLINK-5079,1 53999U 22125AM  22293.25001157 -.00007777  00000-0 -50986-4 0  9998,2 53999  53.2193  20.8812 0002080  23.9032   6.1686 15.73221052  2636,6727.835,91.532,351.1,348.301,0.0
